IRIDIUM 136             
1 42962U 17061H   24106.19480001  .00000134  00000+0  40731-4 0  9990
2 42962  86.4016 356.6518 0002398  90.4790 269.6681 14.34218343341172
